{"type": "FeatureCollection", "features": [ {"type": "Feature", "properties": {"norad_id": 31092, "name": "FENGYUN 1C DEB", "group": "fengyun-1c-debris", "lat": -17.434681430924744, "lon": -79.03004131152016, "alt_km": 978.1590529360647, "timestamp": "2025-12-14T05:42:18.740939+00:00", "meta": {"OBJECT_NAME": "FENGYUN 1C DEB", "OBJECT_ID": "1999-025BGN", "EPOCH": "2025-12-12T18:52:28.918848", "MEAN_MOTION": 13.46534271, "ECCENTRICITY": 0.03271548, "INCLINATION": 99.7205, "RA_OF_ASC_NODE": 102.6457, "ARG_OF_PERICENTER": 136.686, "MEAN_ANOMALY": 226.0493, "EPHEMERIS_TYPE": 0, "CLASSIFICATION_TYPE": "U", "NORAD_CAT_ID": 31092, "ELEMENT_SET_NO": 999, "REV_AT_EPOCH": 91882, "BSTAR": 0.002642085, "MEAN_MOTION_DOT": 2.163e-05, "MEAN_MOTION_DDOT": 0}, "tle": {"line1": "1 31092U 99025BGN 25346.78644582  .00002163  00000+0  26421-2 0  9992", "line2": "2 31092  99.7205 102.6457 0327154 136.6860 226.0493 13.46534271918826"}}, "geometry": {"type": "Point", "coordinates": [-79.03004131152016, -17.434681430924744]}}, {"type": "Feature", "properties": {"norad_id": 31093, "name": "FENGYUN 1C DEB", "group": "fengyun-1c-debris", "lat": 7.519528548844144, "lon": 8.246980999615836, "alt_km": 857.2903168893909, "timestamp": "2025-12-14T05:42:18.740949+00:00", "meta": {"OBJECT_NAME": "FENGYUN 1C DEB", "OBJECT_ID": "1999-025BGP", "EPOCH": "2025-12-12T00:40:42.308544", "MEAN_MOTION": 13.80631235, "ECCENTRICITY": 0.02082019, "INCLINATION": 98.5948, "RA_OF_ASC_NODE": 185.0918, "ARG_OF_PERICENTER": 225.1214, "MEAN_ANOMALY": 133.2872, "EPHEMERIS_TYPE": 0, "CLASSIFICATION_TYPE": "U", "NORAD_CAT_ID": 31093, "ELEMENT_SET_NO": 999, "REV_AT_EPOCH": 94497, "BSTAR": 0.00063492544, "MEAN_MOTION_DOT": 7.45e-06, "MEAN_MOTION_DDOT": 0}, "tle": {"line1": "1 31093U 99025BGP 25346.02826746  .00000745  00000+0  63493-3 0  9999", "line2": "2 31093  98.5948 185.0918 0208201 225.1214 133.2872 13.80631235944974"}}, "geometry": {"type": "Point", "coordinates": [8.246980999615836, 7.519528548844144]}}, {"type": "Feature", "properties": {"norad_id": 31094, "name": "FENGYUN 1C DEB", "group": "fengyun-1c-debris", "lat": 53.074163617675374, "lon": -155.9233220389239, "alt_km": 805.7433857968972, "timestamp": "2025-12-14T05:42:18.740959+00:00", "meta": {"OBJECT_NAME": "FENGYUN 1C DEB", "OBJECT_ID": "1999-025BGQ", "EPOCH": "2025-12-13T14:02:21.055488", "MEAN_MOTION": 14.02048149, "ECCENTRICITY": 0.01064899, "INCLINATION": 98.8565, "RA_OF_ASC_NODE": 215.4164, "ARG_OF_PERICENTER": 44.6579, "MEAN_ANOMALY": 316.3103, "EPHEMERIS_TYPE": 0, "CLASSIFICATION_TYPE": "U", "NORAD_CAT_ID": 31094, "ELEMENT_SET_NO": 999, "REV_AT_EPOCH": 95631, "BSTAR": 0.0018637588, "MEAN_MOTION_DOT": 2.948e-05, "MEAN_MOTION_DDOT": 0}, "tle": {"line1": "1 31094U 99025BGQ 25347.58496592  .00002948  00000+0  18638-2 0  9991", "line2": "2 31094  98.8565 215.4164 0106489  44.6579 316.3103 14.02048149956310"}}, "geometry": {"type": "Point", "coordinates": [-155.9233220389239, 53.074163617675374]}}, {"type": "Feature", "properties": {"norad_id": 31095, "name": "FENGYUN 1C DEB", "group": "fengyun-1c-debris", "lat": -6.367258574553001, "lon": 131.35037530073976, "alt_km": 1606.8435136512544, "timestamp": "2025-12-14T05:42:18.740972+00:00", "meta": {"OBJECT_NAME": "FENGYUN 1C DEB", "OBJECT_ID": "1999-025BGR", "EPOCH": "2025-12-13T15:02:21.481728", "MEAN_MOTION": 13.06667701, "ECCENTRICITY": 0.05000204, "INCLINATION": 98.5617, "RA_OF_ASC_NODE": 129.8978, "ARG_OF_PERICENTER": 189.7418, "MEAN_ANOMALY": 169.3711, "EPHEMERIS_TYPE": 0, "CLASSIFICATION_TYPE": "U", "NORAD_CAT_ID": 31095, "ELEMENT_SET_NO": 999, "REV_AT_EPOCH": 89459, "BSTAR": 0.0010205947, "MEAN_MOTION_DOT": 5.89e-06, "MEAN_MOTION_DDOT": 0}, "tle": {"line1": "1 31095U 99025BGR 25347.62663752  .00000589  00000+0  10206-2 0  9993", "line2": "2 31095  98.5617 129.8978 0500020 189.7418 169.3711 13.06667701894595"}}, "geometry": {"type": "Point", "coordinates": [131.35037530073976, -6.367258574553001]}}, {"type": "Feature", "properties": {"norad_id": 31097, "name": "FENGYUN 1C DEB", "group": "fengyun-1c-debris", "lat": -21.484651368714623, "lon": 114.60101026603131, "alt_km": 737.2785572463063, "timestamp": "2025-12-14T05:42:18.740982+00:00", "meta": {"OBJECT_NAME": "FENGYUN 1C DEB", "OBJECT_ID": "1999-025BGT", "EPOCH": "2025-12-13T13:50:16.265760", "MEAN_MOTION": 14.47014492, "ECCENTRICITY": 0.00154002, "INCLINATION": 98.8587, "RA_OF_ASC_NODE": 110.3903, "ARG_OF_PERICENTER": 268.1028, "MEAN_ANOMALY": 228.0053, "EPHEMERIS_TYPE": 0, "CLASSIFICATION_TYPE": "U", "NORAD_CAT_ID": 31097, "ELEMENT_SET_NO": 999, "REV_AT_EPOCH": 97050, "BSTAR": 0.0032683657, "MEAN_MOTION_DOT": 0.0001188, "MEAN_MOTION_DDOT": 0}, "tle": {"line1": "1 31097U 99025BGT 25347.57657715  .00011880  00000+0  32684-2 0  9991", "line2": "2 31097  98.8587 110.3903 0015400 268.1028 228.0053 14.47014492970508"}}, "geometry": {"type": "Point", "coordinates": [114.60101026603131, -21.484651368714623]}}, {"type": "Feature", "properties": {"norad_id": 31098, "name": "FENGYUN 1C DEB", "group": "fengyun-1c-debris", "lat": -49.69377002851418, "lon": -84.3370278119982, "alt_km": 717.1776211973693, "timestamp": "2025-12-14T05:42:18.740992+00:00", "meta": {"OBJECT_NAME": "FENGYUN 1C DEB", "OBJECT_ID": "1999-025BGU", "EPOCH": "2025-12-13T13:45:24.363360", "MEAN_MOTION": 14.51554001, "ECCENTRICITY": 0.00148623, "INCLINATION": 98.8699, "RA_OF_ASC_NODE": 105.5706, "ARG_OF_PERICENTER": 247.3016, "MEAN_ANOMALY": 112.6606, "EPHEMERIS_TYPE": 0, "CLASSIFICATION_TYPE": "U", "NORAD_CAT_ID": 31098, "ELEMENT_SET_NO": 999, "REV_AT_EPOCH": 96969, "BSTAR": 0.0033375625, "MEAN_MOTION_DOT": 0.0001335, "MEAN_MOTION_DDOT": 0}, "tle": {"line1": "1 31098U 99025BGU 25347.57319865  .00013350  00000+0  33376-2 0  9996", "line2": "2 31098  98.8699 105.5706 0014862 247.3016 112.6606 14.51554001969697"}}, "geometry": {"type": "Point", "coordinates": [-84.3370278119982, -49.69377002851418]}}, {"type": "Feature", "properties": {"norad_id": 31099, "name": "FENGYUN 1C DEB", "group": "fengyun-1c-debris", "lat": -68.30651644908257, "lon": -95.94340727259305, "alt_km": 761.9984605791778, "timestamp": "2025-12-14T05:42:18.741003+00:00", "meta": {"OBJECT_NAME": "FENGYUN 1C DEB", "OBJECT_ID": "1999-025BGV", "EPOCH": "2025-12-12T04:18:00.471168", "MEAN_MOTION": 14.27920703, "ECCENTRICITY": 0.00626993, "INCLINATION": 98.9385, "RA_OF_ASC_NODE": 238.646, "ARG_OF_PERICENTER": 283.0643, "MEAN_ANOMALY": 230.6358, "EPHEMERIS_TYPE": 0, "CLASSIFICATION_TYPE": "U", "NORAD_CAT_ID": 31099, "ELEMENT_SET_NO": 999, "REV_AT_EPOCH": 97463, "BSTAR": 0.00047038954, "MEAN_MOTION_DOT": 1.143e-05, "MEAN_MOTION_DDOT": 0}, "tle": {"line1": "1 31099U 99025BGV 25346.17917212  .00001143  00000+0  47039-3 0  9991", "line2": "2 31099  98.9385 238.6460 0062699 283.0643 230.6358 14.27920703974634"}}, "geometry": {"type": "Point", "coordinates": [-95.94340727259305, -68.30651644908257]}}, {"type": "Feature", "properties": {"norad_id": 31146, "name": "FENGYUN 1C DEB", "group": "fengyun-1c-debris", "lat": 31.893888815255526, "lon": 104.74251908947822, "alt_km": 649.9529320053216, "timestamp": "2025-12-14T05:42:18.741015+00:00", "meta": {"OBJECT_NAME": "FENGYUN 1C DEB", "OBJECT_ID": "1999-025BGY", "EPOCH": "2025-12-13T02:06:17.430336", "MEAN_MOTION": 14.27705988, "ECCENTRICITY": 0.02125723, "INCLINATION": 99.0408, "RA_OF_ASC_NODE": 277.866, "ARG_OF_PERICENTER": 165.9768, "MEAN_ANOMALY": 194.7442, "EPHEMERIS_TYPE": 0, "CLASSIFICATION_TYPE": "U", "NORAD_CAT_ID": 31146, "ELEMENT_SET_NO": 999, "REV_AT_EPOCH": 96770, "BSTAR": 0.00051341708, "MEAN_MOTION_DOT": 1.56e-05, "MEAN_MOTION_DDOT": 0}, "tle": {"line1": "1 31146U 99025BGY 25347.08770174  .00001560  00000+0  51342-3 0  9994", "line2": "2 31146  99.0408 277.8660 0212572 165.9768 194.7442 14.27705988967705"}}, "geometry": {"type": "Point", "coordinates": [104.74251908947822, 31.893888815255526]}}, {"type": "Feature", "properties": {"norad_id": 31148, "name": "FENGYUN 1C DEB", "group": "fengyun-1c-debris", "lat": 40.21780286153478, "lon": -133.71864195330426, "alt_km": 647.271428687518, "timestamp": "2025-12-14T05:42:18.741025+00:00", "meta": {"OBJECT_NAME": "FENGYUN 1C DEB", "OBJECT_ID": "1999-025BHA", "EPOCH": "2025-12-10T15:00:25.932096", "MEAN_MOTION": 14.43336097, "ECCENTRICITY": 0.0136621, "INCLINATION": 98.8655, "RA_OF_ASC_NODE": 230.106, "ARG_OF_PERICENTER": 56.9202, "MEAN_ANOMALY": 304.5019, "EPHEMERIS_TYPE": 0, "CLASSIFICATION_TYPE": "U", "NORAD_CAT_ID": 31148, "ELEMENT_SET_NO": 999, "REV_AT_EPOCH": 97500, "BSTAR": 0.001247, "MEAN_MOTION_DOT": 4.658e-05, "MEAN_MOTION_DDOT": 0}, "tle": {"line1": "1 31148U 99025BHA 25344.62530014  .00004658  00000+0  12470-2 0  9999", "line2": "2 31148  98.8655 230.1060 0136621  56.9202 304.5019 14.43336097975008"}}, "geometry": {"type": "Point", "coordinates": [-133.71864195330426, 40.21780286153478]}}, {"type": "Feature", "properties": {"norad_id": 31150, "name": "FENGYUN 1C DEB", "group": "fengyun-1c-debris", "lat": -11.717670681876866, "lon": -1.334681374918262, "alt_km": 865.0667006035774, "timestamp": "2025-12-14T05:42:18.741035+00:00", "meta": {"OBJECT_NAME": "FENGYUN 1C DEB", "OBJECT_ID": "1999-025BHC", "EPOCH": "2025-12-12T06:27:42.155424", "MEAN_MOTION": 14.12732923, "ECCENTRICITY": 0.00152502, "INCLINATION": 98.686, "RA_OF_ASC_NODE": 354.9395, "ARG_OF_PERICENTER": 160.7902, "MEAN_ANOMALY": 261.7448, "EPHEMERIS_TYPE": 0, "CLASSIFICATION_TYPE": "U", "NORAD_CAT_ID": 31150, "ELEMENT_SET_NO": 999, "REV_AT_EPOCH": 96290, "BSTAR": 0.0002347459, "MEAN_MOTION_DOT": 3.93e-06, "MEAN_MOTION_DDOT": 0}, "tle": {"line1": "1 31150U 99025BHC 25346.26923791  .00000393  00000+0  23475-3 0  9992", "line2": "2 31150  98.6860 354.9395 0015250 160.7902 261.7448 14.12732923962907"}}, "geometry": {"type": "Point", "coordinates": [-1.334681374918262, -11.717670681876866]}}]}